NORAD_CAT_ID,OBJECT_NAME,OBJECT_TYPE,EPOCH,MEAN_MOTION,ECCENTRICITY,INCLINATION,RA_OF_ASC_NODE,ARG_OF_PERICENTER,MEAN_ANOMALY,BSTAR,MEAN_MOTION_DOT,MEAN_MOTION_DDOT,TLE_LINE0,TLE_LINE1,TLE_LINE2,SEMIMAJOR_AXIS,PERIOD,APOGEE,PERIGEE,DECAYED
49743.0,STARLINK-3239,PAYLOAD,2024-05-03 18:13:54,15.08840251,0.0001185,53.2199,298.9329,87.3915,272.7213,0.00012361,1.68e-05,0.0,0 STARLINK-3239,1 49743U 21115V   24124.75966263  .00001680  00000-0  12361-3 0  9995,2 49743  53.2199 298.9329 0001185  87.3915 272.7213 15.08840251133643,6917.88,95.438,540.564,538.925,0.0
49743.0,STARLINK-3239,PAYLOAD,2024-05-04 11:43:09,15.08837931,0.0001332,53.2188,295.6617,88.2937,271.8208,3.6303e-05,2.9e-06,0.0,0 STARLINK-3239,1 49743U 21115V   24125.48830567  .00000290  00000-0  36303-4 0  9992,2 49743  53.2188 295.6617 0001332  88.2937 271.8208 15.08837931134863,6917.887,95.438,540.673,538.83,0.0
49743.0,STARLINK-3239,PAYLOAD,2024-05-04 18:04:42,15.08829159,0.0001156,53.2181,294.4707,93.8168,266.2956,2.6304e-05,1.31e-06,0.0,0 STARLINK-3239,1 49743U 21115V   24125.75327225  .00000131  00000-0  26304-4 0  9998,2 49743  53.2181 294.4707 0001156  93.8168 266.2956 15.08829159134901,6917.914,95.438,540.578,538.979,0.0
49743.0,STARLINK-3239,PAYLOAD,2024-05-05 03:37:01,15.08838498,0.0001251,53.2189,292.6891,94.6356,265.4779,-6.2729e-07,-2.98e-06,0.0,0 STARLINK-3239,1 49743U 21115V   24126.15070887 -.00000298  00000-0 -62729-6 0  9991,2 49743  53.2189 292.6891 0001251  94.6356 265.4779 15.08838498134963,6917.885,95.438,540.615,538.885,0.0
49743.0,STARLINK-3239,PAYLOAD,2024-05-05 14:44:43,15.08838495,0.0001221,53.2188,290.6076,96.1313,263.9818,3.0323e-05,1.95e-06,0.0,0 STARLINK-3239,1 49743U 21115V   24126.61438876  .00000195  00000-0  30323-4 0  9995,2 49743  53.2188 290.6076 0001221  96.1313 263.9818 15.08838495133921,6917.885,95.438,540.595,538.905,0.0
49743.0,STARLINK-3239,PAYLOAD,2024-05-05 16:20:06,15.08840037,0.0001236,53.2188,290.3102,95.9657,264.1476,4.4911e-05,4.27e-06,0.0,0 STARLINK-3239,1 49743U 21115V   24126.68062757  .00000427  00000-0  44911-4 0  9999,2 49743  53.2188 290.3102 0001236  95.9657 264.1476 15.08840037133931,6917.88,95.438,540.6,538.89,0.0
49743.0,STARLINK-3239,PAYLOAD,2024-05-06 03:27:47,15.0885196,0.0001209,53.2192,288.2305,95.2229,264.8901,6.5595e-05,7.57e-06,0.0,0 STARLINK-3239,1 49743U 21115V   24127.14429848  .00000757  00000-0  65595-4 0  9996,2 49743  53.2192 288.2305 0001209  95.2229 264.8901 15.08851960135114,6917.844,95.437,540.545,538.872,0.0
49743.0,STARLINK-3239,PAYLOAD,2024-05-06 14:35:30,15.08828904,0.0001218,53.2189,286.1484,97.233,262.8801,8.4175e-05,1.052e-05,0.0,0 STARLINK-3239,1 49743U 21115V   24127.60799497  .00001052  00000-0  84175-4 0  9991,2 49743  53.2189 286.1484 0001218  97.2330 262.8801 15.08828904134073,6917.914,95.438,540.622,538.937,0.0
49743.0,STARLINK-3239,PAYLOAD,2024-05-06 19:21:39,15.08834579,0.0001212,53.2192,285.2557,94.4952,265.6178,0.00012412,1.688e-05,0.0,0 STARLINK-3239,1 49743U 21115V   24127.80671161  .00001688  00000-0  12412-3 0  9999,2 49743  53.2192 285.2557 0001212  94.4952 265.6178 15.08834579135211,6917.897,95.438,540.6,538.924,0.0
49743.0,STARLINK-3239,PAYLOAD,2024-05-07 14:26:18,15.08829577,0.0001261,53.2194,281.6872,93.7276,266.386,-1.5529e-05,-5.35e-06,0.0,0 STARLINK-3239,1 49743U 21115V   24128.60160332 -.00000535  00000-0 -15529-4 0  9996,2 49743  53.2194 281.6872 0001261  93.7276 266.3860 15.08829577134226,6917.912,95.438,540.65,538.905,0.0
49743.0,STARLINK-3239,PAYLOAD,2024-05-07 19:12:27,15.08831641,0.0001194,53.2184,280.7921,76.7387,283.3738,-3.045e-05,-7.72e-06,0.0,0 STARLINK-3239,1 49743U 21115V   24128.80032343 -.00000772  00000-0 -30450-4 0  9991,2 49743  53.2184 280.7921 0001194  76.7387 283.3738 15.08831641135363,6917.906,95.438,540.597,538.945,0.0
49743.0,STARLINK-3239,PAYLOAD,2024-05-08 03:09:22,15.08843463,0.0001023,53.2177,279.3066,79.6392,280.4716,4.4893e-06,-2.16e-06,0.0,0 STARLINK-3239,1 49743U 21115V   24129.13151435 -.00000216  00000-0  44893-5 0  9991,2 49743  53.2177 279.3066 0001023  79.6392 280.4716 15.08843463135413,6917.87,95.437,540.443,539.027,0.0
49743.0,STARLINK-3239,PAYLOAD,2024-05-08 14:17:05,15.08836502,9.85e-05,53.2167,277.2261,86.5878,273.5227,0.00013374,1.841e-05,0.0,0 STARLINK-3239,1 49743U 21115V   24129.59519676  .00001841  00000-0  13374-3 0  9998,2 49743  53.2167 277.2261 0000985  86.5878 273.5227 15.08836502134378,6917.891,95.438,540.437,539.075,0.0
49743.0,STARLINK-3239,PAYLOAD,2024-05-08 17:27:50,15.08851161,9.43e-05,53.217,276.6286,78.9004,281.2094,0.00014053,1.95e-05,0.0,0 STARLINK-3239,1 49743U 21115V   24129.72766772  .00001950  00000-0  14053-3 0  9990,2 49743  53.2170 276.6286 0000943  78.9004 281.2094 15.08851161134390,6917.846,95.437,540.364,539.059,0.0
49743.0,STARLINK-3239,PAYLOAD,2024-05-09 03:00:08,15.08853213,0.0001057,53.2174,274.8468,81.7455,278.3657,0.00022307,3.265e-05,0.0,0 STARLINK-3239,1 49743U 21115V   24130.12510294  .00003265  00000-0  22307-3 0  9994,2 49743  53.2174 274.8468 0001057  81.7455 278.3657 15.08853213135567,6917.84,95.437,540.436,538.974,0.0
49743.0,STARLINK-3239,PAYLOAD,2024-05-09 09:21:42,15.08836246,0.0001077,53.2154,273.6564,109.481,250.6298,8.973e-05,1.14e-05,0.0,0 STARLINK-3239,1 49743U 21115V   24130.39007903  .00001140  00000-0  89730-4 0  9995,2 49743  53.2154 273.6564 0001077 109.4810 250.6298 15.08836246135600,6917.892,95.438,540.502,539.012,0.0
49743.0,STARLINK-3239,PAYLOAD,2024-05-09 14:07:52,15.08836281,0.0001048,53.2167,272.7653,91.1205,268.9908,9.4844e-05,1.222e-05,0.0,0 STARLINK-3239,1 49743U 21115V   24130.58880081  .00001222  00000-0  94844-4 0  9995,2 49743  53.2167 272.7653 0001048  91.1205 268.9908 15.08836281134525,6917.892,95.438,540.482,539.032,0.0
49743.0,STARLINK-3239,PAYLOAD,2024-05-09 15:43:15,15.08836495,8.81e-05,53.2158,272.4663,109.1287,250.9801,0.00010828,1.436e-05,0.0,0 STARLINK-3239,1 49743U 21115V   24130.65503954  .00001436  00000-0  10828-3 0  9990,2 49743  53.2158 272.4663 0000881 109.1287 250.9801 15.08836495134538,6917.891,95.438,540.366,539.147,0.0
49743.0,STARLINK-3239,PAYLOAD,2024-05-10 02:50:55,15.0885854,7.43e-05,53.2164,270.3865,68.9215,291.1857,0.00022937,3.366e-05,0.0,0 STARLINK-3239,1 49743U 21115V   24131.11870219  .00003366  00000-0  22937-3 0  9991,2 49743  53.2164 270.3865 0000743  68.9215 291.1857 15.08858540135710,6917.824,95.436,540.203,539.175,0.0
49743.0,STARLINK-3239,PAYLOAD,2024-05-10 13:58:39,15.08834545,0.000116,53.2177,268.3049,71.7542,288.3576,-2.8166e-05,-7.36e-06,0.0,0 STARLINK-3239,1 49743U 21115V   24131.58239980 -.00000736  00000-0 -28166-4 0  9997,2 49743  53.2177 268.3049 0001160  71.7542 288.3576 15.08834545134673,6917.897,95.438,540.565,538.96,0.0
49743.0,STARLINK-3239,PAYLOAD,2024-05-10 15:34:02,15.088347,8.03e-05,53.2172,268.0071,71.6462,288.4617,-1.5411e-05,-5.33e-06,0.0,0 STARLINK-3239,1 49743U 21115V   24131.64863940 -.00000533  00000-0 -15411-4 0  9997,2 49743  53.2172 268.0071 0000803  71.6462 288.4617 15.08834700135797,6917.897,95.438,540.317,539.206,0.0
49743.0,STARLINK-3239,PAYLOAD,2024-05-11 13:49:23,15.08802153,0.000123,53.2157,263.8424,68.1659,291.9464,-0.0016413,-0.00026287,0.0,0 STARLINK-3239,1 49743U 21115V   24132.57597061 -.00026287  00000-0 -16413-2 0  9993,2 49743  53.2157 263.8424 0001230  68.1659 291.9464 15.08802153135931,6917.996,95.44,540.712,539.01,0.0
49743.0,STARLINK-3239,PAYLOAD,2024-05-11 15:24:47,15.08803431,0.000124,53.217,263.545,71.0126,289.1001,-0.0015671,-0.00025116,0.0,0 STARLINK-3239,1 49743U 21115V   24132.64221110 -.00025116  00000-0 -15671-2 0  9995,2 49743  53.2170 263.5450 0001240  71.0126 289.1001 15.08803431134839,6917.992,95.44,540.715,538.999,0.0
49743.0,STARLINK-3239,PAYLOAD,2024-05-12 15:15:38,15.08796954,0.0001449,53.2172,259.0846,78.8554,281.2601,0.00088565,0.00013819,0.0,0 STARLINK-3239,1 49743U 21115V   24133.63586745  .00013819  00000-0  88565-3 0  9991,2 49743  53.2172 259.0846 0001449  78.8554 281.2601 15.08796954134987,6918.012,95.44,540.879,538.875,0.0
49743.0,STARLINK-3239,PAYLOAD,2024-05-12 20:01:49,15.08795695,0.0001496,53.2172,258.195,88.8462,271.2701,0.0023969,0.00038018,0.0,0 STARLINK-3239,1 49743U 21115V   24133.83459912  .00038018  00000-0  23969-2 0  9992,2 49743  53.2172 258.1950 0001496  88.8462 271.2701 15.08795695136123,6918.016,95.44,540.916,538.846,0.0
49743.0,STARLINK-3239,PAYLOAD,2024-05-13 11:55:40,15.08859636,0.0001533,53.2164,255.2191,78.3114,281.805,0.0013116,0.00020659,0.0,0 STARLINK-3239,1 49743U 21115V   24134.49699737  .00020659  00000-0  13116-2 0  9991,2 49743  53.2164 255.2191 0001533  78.3114 281.8050 15.08859636136220,6917.82,95.436,540.746,538.625,0.0
49743.0,STARLINK-3239,PAYLOAD,2024-05-13 15:06:26,15.08874193,0.0001473,53.2159,254.6262,93.4188,266.6972,0.0017501,0.00027701,0.0,0 STARLINK-3239,1 49743U 21115V   24134.62947321  .00027701  00000-0  17501-2 0  9998,2 49743  53.2159 254.6262 0001473  93.4188 266.6972 15.08874193135136,6917.776,95.435,540.66,538.622,0.0
49743.0,STARLINK-3239,PAYLOAD,2024-05-14 11:46:25,15.08869011,0.0001338,53.216,250.7608,95.6046,264.5099,0.00036379,5.511e-05,0.0,0 STARLINK-3239,1 49743U 21115V   24135.49057788  .00005511  00000-0  36379-3 0  9993,2 49743  53.2160 250.7608 0001338  95.6046 264.5099 15.08869011136373,6917.792,95.436,540.582,538.731,0.0
49743.0,STARLINK-3239,PAYLOAD,2024-05-14 14:57:11,15.08869948,0.0001082,53.2151,250.1649,91.4631,268.6485,0.00032487,4.89e-05,0.0,0 STARLINK-3239,1 49743U 21115V   24135.62305464  .00004890  00000-0  32487-3 0  9990,2 49743  53.2151 250.1649 0001082  91.4631 268.6485 15.08869948135284,6917.789,95.436,540.402,538.905,0.0
49743.0,STARLINK-3239,PAYLOAD,2024-05-15 00:29:29,15.08886394,0.0001151,53.2154,248.3795,79.6172,280.495,0.00060341,9.34e-05,0.0,0 STARLINK-3239,1 49743U 21115V   24136.02048122  .00009340  00000-0  60341-3 0  9995,2 49743  53.2154 248.3795 0001151  79.6172 280.4950 15.08886394136456,6917.739,95.435,540.4,538.807,0.0
